STARLINK-3895           
1 52583U 22051AZ  26068.53804895 -.00000417  00000+0 -81053-5 0  9992
2 52583  53.2175 119.8017 0001393  90.7443 269.3709 15.08840669211566
PRSC-S1                 
1 65055U 25164A   26068.60758212  .00007316  00000+0  46631-3 0  9991
2 65055  41.1290 129.3637 0004466 348.3012  11.7698 15.08919510 33403
